CZ-2C R/B               
1 54039U 22132E   25338.17335330  .00063995  00000+0  97313-3 0  9994
2 54039  97.2940 334.2132 0023833  84.9275 275.4698 15.54003877175505
GSLV R/B                
1 54149U 22138AN  25337.69240600  .00004755  00000+0  41879-3 0  9998
2 54149  87.3836 198.5027 0023261 135.4628 224.8478 14.96053865169575
XRISM                   
1 57800U 23137A   25336.85448533  .00006730  00000+0  39603-3 0  9994
2 57800  31.0000 189.3635 0007644 145.2605 214.8533 15.10197227123136
ACS3                    
1 59588U 24077B   25338.15813941  .00068182  00000+0  58546-1 0  9991
2 59588  97.2751 295.6785 0077694 356.8851   3.1816 13.84881818 80950
